IRIDIUM 126             
1 42809U 17039G   25244.65581798  .00000307  00000+0  10245-3 0  9993
2 42809  86.3954 114.2878 0001932  89.5312 270.6105 14.34219895428599
IRIDIUM 124             
1 42810U 17039H   25244.91342268  .00000228  00000+0  61883-4 0  9998
2 42810  86.4458  50.8621 0002342  91.5571 268.5898 14.43282894433532
IRIDIUM 128             
1 42811U 17039J   25244.78609520 -.00000016  00000+0 -12919-4 0  9994
2 42811  86.4024 145.7304 0002434  82.2281 277.9191 14.34218374428649
IRIDIUM 121             
1 42812U 17039K   25244.88415228  .00000236  00000+0  77149-4 0  9994
2 42812  86.3956 114.2181 0002239  84.5295 275.6156 14.34217774428504
IRIDIUM 133             
1 42955U 17061A   25244.81780538  .00000112  00000+0  33108-4 0  9999
2 42955  86.4025 145.8284 0002156  84.6245 275.5197 14.34220513413444
IRIDIUM 100             
1 42956U 17061B   25244.81146497  .00000316  00000+0  10592-3 0  9997
2 42956  86.4020 145.7563 0002215  88.4156 271.7294 14.34219537413448
IRIDIUM 122             
1 42957U 17061C   25244.84952059  .00000121  00000+0  36103-4 0  9991
2 42957  86.4020 145.7399 0002154  86.0299 274.1144 14.34216556413450
IRIDIUM 129             
1 42958U 17061D   25244.80512311 -.00000023  00000+0 -15304-4 0  9994
2 42958  86.4021 145.8220 0001674  75.6445 284.4936 14.34217356413462
